{"fetched_at":"2026-05-03T06:27:58Z","count":17151,"tles":[{"name":"STARLINK-37465","line1":"1 68847U 26094J   26122.41670139 -.01693630  86888-3 -34026-2 0  9996","line2":"2 68847  97.2822 136.0717 0001392  89.8832 133.2408 15.99835901  1948","category":"Starlink"}]}