{
  "norad_id": 68847,
  "name": "STARLINK-37465",
  "history": [
    {
      "epoch": "2026-05-02T10:00:03.000096Z",
      "apogee_km": 275.79970500816944,
      "perigee_km": 273.9475068554775,
      "latitude_deg": -42.985660107904906,
      "longitude_deg": -61.077329317383345,
      "height_km": 292.16759420013096,
      "semi_major_axis_km": 6653.010605931823,
      "eccentricity": 0.0001392,
      "inclination_deg": 97.2822,
      "raan_deg": 136.0717,
      "arg_perigee_deg": 89.8832,
      "mean_anomaly_deg": 133.2408,
      "mean_motion_rev_day": 15.99835901
    }
  ]
}